{
  "type": "FeatureCollection",
  "features": [
    {
      "type": "Feature",
      "properties": {
        "norad_id": 31282,
        "name": "FENGYUN 1C DEB",
        "group": "fengyun-1c-debris",
        "lat": 9.300796483920294,
        "lon": 82.46210910777144,
        "alt_km": 799.319985717244,
        "timestamp": "2025-12-09T21:34:11.689489+00:00",
        "meta_object_name": "FENGYUN 1C DEB",
        "meta_object_id": "1999-025BNQ",
        "meta_epoch": "2025-12-07T12:12:30.276864",
        "meta_mean_motion": 14.43452094,
        "meta_eccentricity": 0.01272088,
        "meta_inclination": 99.2162,
        "meta_ra_of_asc_node": 258.3532,
        "meta_arg_of_pericenter": 302.0323,
        "meta_mean_anomaly": 56.8558,
        "meta_ephemeris_type": 0,
        "meta_classification_type": "U",
        "meta_norad_cat_id": 31282,
        "meta_element_set_no": 999,
        "meta_rev_at_epoch": 97045,
        "meta_bstar": 0.00050590483,
        "meta_mean_motion_dot": 1.828e-05,
        "meta_mean_motion_ddot": 0,
        "tle_line1": "1 31282U 99025BNQ 25341.50868376  .00001828  00000+0  50590-3 0  9999",
        "tle_line2": "2 31282  99.2162 258.3532 0127208 302.0323  56.8558 14.43452094970456"
      },
      "geometry": {
        "type": "Point",
        "coordinates": [
          82.46210910777144,
          9.300796483920294
        ]
      }
    },
    {
      "type": "Feature",
      "properties": {
        "norad_id": 31284,
        "name": "FENGYUN 1C DEB",
        "group": "fengyun-1c-debris",
        "lat": -20.6887585508132,
        "lon": -105.58473861588432,
        "alt_km": 978.6761714124714,
        "timestamp": "2025-12-09T21:34:11.689499+00:00",
        "meta_object_name": "FENGYUN 1C DEB",
        "meta_object_id": "1999-025BNS",
        "meta_epoch": "2025-12-07T11:56:16.183392",
        "meta_mean_motion": 13.97885245,
        "meta_eccentricity": 0.01434438,
        "meta_inclination": 99.7228,
        "meta_ra_of_asc_node": 75.5858,
        "meta_arg_of_pericenter": 72.8247,
        "meta_mean_anomaly": 288.8562,
        "meta_ephemeris_type": 0,
        "meta_classification_type": "U",
        "meta_norad_cat_id": 31284,
        "meta_element_set_no": 999,
        "meta_rev_at_epoch": 95089,
        "meta_bstar": 0.0011308484,
        "meta_mean_motion_dot": 1.7e-05,
        "meta_mean_motion_ddot": 0,
        "tle_line1": "1 31284U 99025BNS 25341.49740953  .00001700  00000+0  11308-2 0  9991",
        "tle_line2": "2 31284  99.7228  75.5858 0143443  72.8247 288.8562 13.97885245950896"
      },
      "geometry": {
        "type": "Point",
        "coordinates": [
          -105.58473861588432,
          -20.6887585508132
        ]
      }
    },
    {
      "type": "Feature",
      "properties": {
        "norad_id": 31285,
        "name": "FENGYUN 1C DEB",
        "group": "fengyun-1c-debris",
        "lat": -77.28728607034826,
        "lon": 102.75486650323157,
        "alt_km": 750.2010229104308,
        "timestamp": "2025-12-09T21:34:11.689510+00:00",
        "meta_object_name": "FENGYUN 1C DEB",
        "meta_object_id": "1999-025BNT",
        "meta_epoch": "2025-12-08T05:42:25.849152",
        "meta_mean_motion": 14.26032889,
        "meta_eccentricity": 0.0199382,
        "meta_inclination": 98.5185,
        "meta_ra_of_asc_node": 322.7729,
        "meta_arg_of_pericenter": 200.0417,
        "meta_mean_anomaly": 176.4242,
        "meta_ephemeris_type": 0,
        "meta_classification_type": "U",
        "meta_norad_cat_id": 31285,
        "meta_element_set_no": 999,
        "meta_rev_at_epoch": 97235,
        "meta_bstar": 0.00033373235,
        "meta_mean_motion_dot": 9.35e-06,
        "meta_mean_motion_ddot": 0,
        "tle_line1": "1 31285U 99025BNT 25342.23779918  .00000935  00000+0  33373-3 0  9994",
        "tle_line2": "2 31285  98.5185 322.7729 0199382 200.0417 176.4242 14.26032889972350"
      },
      "geometry": {
        "type": "Point",
        "coordinates": [
          102.75486650323157,
          -77.28728607034826
        ]
      }
    },
    {
      "type": "Feature",
      "properties": {
        "norad_id": 31286,
        "name": "FENGYUN 1C DEB",
        "group": "fengyun-1c-debris",
        "lat": 55.482874536953304,
        "lon": -142.34696101501765,
        "alt_km": 847.8396168767549,
        "timestamp": "2025-12-09T21:34:11.689541+00:00",
        "meta_object_name": "FENGYUN 1C DEB",
        "meta_object_id": "1999-025BNU",
        "meta_epoch": "2025-12-08T21:40:20.388000",
        "meta_mean_motion": 14.22675584,
        "meta_eccentricity": 0.008086,
        "meta_inclination": 100.8609,
        "meta_ra_of_asc_node": 232.6383,
        "meta_arg_of_pericenter": 289.9444,
        "meta_mean_anomaly": 69.3029,
        "meta_ephemeris_type": 0,
        "meta_classification_type": "U",
        "meta_norad_cat_id": 31286,
        "meta_element_set_no": 999,
        "meta_rev_at_epoch": 63965,
        "meta_bstar": 0.0039372,
        "meta_mean_motion_dot": 9.063e-05,
        "meta_mean_motion_ddot": 0,
        "tle_line1": "1 31286U 99025BNU 25342.90301375  .00009063  00000+0  39372-2 0  9992",
        "tle_line2": "2 31286 100.8609 232.6383 0080860 289.9444  69.3029 14.22675584639657"
      },
      "geometry": {
        "type": "Point",
        "coordinates": [
          -142.34696101501765,
          55.482874536953304
        ]
      }
    },
    {
      "type": "Feature",
      "properties": {
        "norad_id": 31287,
        "name": "FENGYUN 1C DEB",
        "group": "fengyun-1c-debris",
        "lat": 52.21747498789373,
        "lon": 27.262273588168313,
        "alt_km": 774.0751655185859,
        "timestamp": "2025-12-09T21:34:11.689552+00:00",
        "meta_object_name": "FENGYUN 1C DEB",
        "meta_object_id": "1999-025BNV",
        "meta_epoch": "2025-12-01T09:50:16.615392",
        "meta_mean_motion": 14.27891237,
        "meta_eccentricity": 0.00285984,
        "meta_inclination": 99.4087,
        "meta_ra_of_asc_node": 30.4771,
        "meta_arg_of_pericenter": 95.3474,
        "meta_mean_anomaly": 265.0968,
        "meta_ephemeris_type": 0,
        "meta_classification_type": "U",
        "meta_norad_cat_id": 31287,
        "meta_element_set_no": 999,
        "meta_rev_at_epoch": 96524,
        "meta_bstar": 0.0017630055,
        "meta_mean_motion_dot": 4.336e-05,
        "meta_mean_motion_ddot": 0,
        "tle_line1": "1 31287U 99025BNV 25335.40991453  .00004336  00000+0  17630-2 0  9993",
        "tle_line2": "2 31287  99.4087  30.4771 0028598  95.3474 265.0968 14.27891237965242"
      },
      "geometry": {
        "type": "Point",
        "coordinates": [
          27.262273588168313,
          52.21747498789373
        ]
      }
    },
    {
      "type": "Feature",
      "properties": {
        "norad_id": 31288,
        "name": "FENGYUN 1C DEB",
        "group": "fengyun-1c-debris",
        "lat": -43.84264783586165,
        "lon": -46.88489307962918,
        "alt_km": 585.6177239667741,
        "timestamp": "2025-12-09T21:34:11.689562+00:00",
        "meta_object_name": "FENGYUN 1C DEB",
        "meta_object_id": "1999-025BNW",
        "meta_epoch": "2025-12-08T05:11:12.787872",
        "meta_mean_motion": 14.94821402,
        "meta_eccentricity": 0.00226187,
        "meta_inclination": 98.7475,
        "meta_ra_of_asc_node": 139.7443,
        "meta_arg_of_pericenter": 307.996,
        "meta_mean_anomaly": 226.6023,
        "meta_ephemeris_type": 0,
        "meta_classification_type": "U",
        "meta_norad_cat_id": 31288,
        "meta_element_set_no": 999,
        "meta_rev_at_epoch": 97489,
        "meta_bstar": 0.0062848596,
        "meta_mean_motion_dot": 0.00069332,
        "meta_mean_motion_ddot": 0,
        "tle_line1": "1 31288U 99025BNW 25342.21612023  .00069332  00000+0  62849-2 0  9993",
        "tle_line2": "2 31288  98.7475 139.7443 0022618 307.9960 226.6023 14.94821402974891"
      },
      "geometry": {
        "type": "Point",
        "coordinates": [
          -46.88489307962918,
          -43.84264783586165
        ]
      }
    },
    {
      "type": "Feature",
      "properties": {
        "norad_id": 31293,
        "name": "FENGYUN 1C DEB",
        "group": "fengyun-1c-debris",
        "lat": 80.4461981188871,
        "lon": -69.93848283672126,
        "alt_km": 869.4196662593995,
        "timestamp": "2025-12-09T21:34:11.689572+00:00",
        "meta_object_name": "FENGYUN 1C DEB",
        "meta_object_id": "1999-025BPB",
        "meta_epoch": "2025-12-08T18:18:38.124000",
        "meta_mean_motion": 14.30809742,
        "meta_eccentricity": 0.012536,
        "meta_inclination": 98.4229,
        "meta_ra_of_asc_node": 350.646,
        "meta_arg_of_pericenter": 256.7589,
        "meta_mean_anomaly": 101.9586,
        "meta_ephemeris_type": 0,
        "meta_classification_type": "U",
        "meta_norad_cat_id": 31293,
        "meta_element_set_no": 999,
        "meta_rev_at_epoch": 65187,
        "meta_bstar": 0.0001557784,
        "meta_mean_motion_dot": 4e-06,
        "meta_mean_motion_ddot": 0,
        "tle_line1": "1 31293U 99025BPB 25342.76294125  .00000400  00000+0  15578-3 0  9997",
        "tle_line2": "2 31293  98.4229 350.6460 0125360 256.7589 101.9586 14.30809742651872"
      },
      "geometry": {
        "type": "Point",
        "coordinates": [
          -69.93848283672126,
          80.4461981188871
        ]
      }
    }
  ]
}